[{"OBJECT_NAME":"STARLINK-35370","OBJECT_ID":"2025-235AD","EPOCH":"2026-03-09T22:12:15.417216","MEAN_MOTION":15.30208642,"ECCENTRICITY":0.00010404,"INCLINATION":53.1579,"RA_OF_ASC_NODE":244.4481,"ARG_OF_PERICENTER":81.4609,"MEAN_ANOMALY":278.651,"EPHEMERIS_TYPE":0,"CLASSIFICATION_TYPE":"U","NORAD_CAT_ID":66085,"ELEMENT_SET_NO":999,"REV_AT_EPOCH":2292,"BSTAR":0.0012563086,"MEAN_MOTION_DOT":0.00037045,"MEAN_MOTION_DDOT":0},{"OBJECT_NAME":"USA 25","OBJECT_ID":"1987-043H","EPOCH":"2026-03-09T22:37:27.916608","MEAN_MOTION":13.88545808,"ECCENTRICITY":0.07905574,"INCLINATION":63.2894,"RA_OF_ASC_NODE":272.1916,"ARG_OF_PERICENTER":101.4908,"MEAN_ANOMALY":267.5915,"EPHEMERIS_TYPE":0,"CLASSIFICATION_TYPE":"U","NORAD_CAT_ID":18025,"ELEMENT_SET_NO":999,"REV_AT_EPOCH":33808,"BSTAR":0.0008943639,"MEAN_MOTION_DOT":0.00017183,"MEAN_MOTION_DDOT":0}]
